STARLINK-32733          
1 62477U 24254R   26068.66670139  .00043195  00000+0  15721-2 0  9992
2 62477  43.0020  16.1192 0001508 263.1440 104.9916 15.27536121  5874
JINJUSAT-1B             
1 63210U 25052A   26068.66363707  .00019955  00000+0  68430-3 0  9998
2 63210  97.4113 325.4613 0005550  82.1930 277.9941 15.30194857 54866
